GLOBALSTAR M035         
1 25851U 99037A   24320.89474860 -.00000075  00000+0 -43096-3 0  9994
2 25851  51.9912 170.6281 0013893   2.3036  10.9049 11.04534960 72693
GLOBALSTAR M032         
1 25852U 99037B   24320.84823391 -.00000180  00000+0 -36507-2 0  9992
2 25852  51.9988  10.6436 0010908 169.2484 190.8550 11.19056948110909
GLOBALSTAR M051         
1 25853U 99037C   24320.87349921 -.00000074  00000+0 -55271-4 0  9991
2 25853  51.9776 195.4849 0001123 135.0450 225.0451 11.42198984108011
GLOBALSTAR M030         
1 25854U 99037D   24320.51595676 -.00000114  00000+0 -81949-3 0  9998
2 25854  51.9909  16.0373 0003715  29.5659 330.5368 11.55100999125355
GLOBALSTAR M048         
1 25872U 99041A   24320.76354035 -.00000069  00000+0  40546-4 0  9999
2 25872  51.9336 122.5293 0013671 169.9980 203.1021 11.33852015100770
GLOBALSTAR M026         
1 25873U 99041B   24320.91962712 -.00000057  00000+0  26884-3 0  9999
2 25873  52.0016 290.7720 0001101 275.4413 125.9377 11.06827737124875
GLOBALSTAR M043         
1 25874U 99041C   24320.89569338 -.00000013  00000+0  16437-2 0  9998
2 25874  51.9395 221.3631 0012744 312.2862 141.5858 11.25687460 98852
GLOBALSTAR M028         
1 25875U 99041D   24320.67455095 -.00000083  00000+0  10765-3 0  9995
2 25875  51.9611 109.7151 0062664 328.3734  31.3369 12.50570308163466
